STARLINK-2503
1 18151C 21027BM  21326.17830316 -.00016597  00000-0 -11123-2 0  3268
2 18151  53.0552 352.9396 0001349  60.7584 226.5522 15.06405970    17
